[Satellite]
VERSION=1.1
NAME=DEORBITSAIL
NICKNAME=DEORBITSAIL
TLE1=1 40719U 15032E   17186.22130843  .00000320  00000-0  53665-4 0  9992
TLE2=2 40719  97.9788  79.7522 0018088  85.0618 275.2656 14.76071208106989
